STARLINK-1457
1 25674C 20035T   21325.16353839  .00005828  00000-0  39040-3 0  3252
2 25674  53.0533 272.4990 0001981  65.4674 243.1738 15.06397401    16
